[{"OBJECT_NAME":"HORS 2","OBJECT_ID":"2023-091AG","EPOCH":"2026-03-09T22:11:34.810944","MEAN_MOTION":15.2928008,"ECCENTRICITY":0.00098173,"INCLINATION":97.5195,"RA_OF_ASC_NODE":134.7443,"ARG_OF_PERICENTER":79.3164,"MEAN_ANOMALY":280.9181,"EPHEMERIS_TYPE":0,"CLASSIFICATION_TYPE":"U","NORAD_CAT_ID":57196,"ELEMENT_SET_NO":999,"REV_AT_EPOCH":14934,"BSTAR":0.00059338338,"MEAN_MOTION_DOT":0.00016821,"MEAN_MOTION_DDOT":0},{"OBJECT_NAME":"STARLINK-30518","OBJECT_ID":"2023-156B","EPOCH":"2026-03-09T08:07:20.501472","MEAN_MOTION":15.30196225,"ECCENTRICITY":0.00015442,"INCLINATION":53.1604,"RA_OF_ASC_NODE":79.9129,"ARG_OF_PERICENTER":112.8694,"MEAN_ANOMALY":247.247,"EPHEMERIS_TYPE":0,"CLASSIFICATION_TYPE":"U","NORAD_CAT_ID":58029,"ELEMENT_SET_NO":999,"REV_AT_EPOCH":13626,"BSTAR":0.00025487005,"MEAN_MOTION_DOT":7.196e-5,"MEAN_MOTION_DDOT":0}]
